LYNK TOWER 3            
1 55046U 23001AP  26068.68752747  .00013886  00000+0  42324-3 0  9997
2 55046  97.3321 129.5399 0009859 112.8813 247.3472 15.34026505176644
STARLINK-33919          
1 63699U 25087C   26068.68387536  .00016757  00000+0  57664-3 0  9999
2 63699  53.1603 219.9430 0000951  87.8925 272.2185 15.30199068 49197
